start=new Date('2022-12-26T00:00:00.000Z').valueOf();
sats=[{"CLASSIFICATION_TYPE":"U","RCS_SIZE":"LARGE","INCLINATION":"53.0547","PERIAPSIS":"546.020","MEAN_MOTION_DOT":"-0.00001134","MEAN_MOTION":"15.06394073","GP_ID":"221448792","RA_OF_ASC_NODE":"173.1892","COUNTRY_CODE":"US","REF_FRAME":"TEME","ECCENTRICITY":"0.00017500","MEAN_MOTION_DDOT":"0.0000000000000","MEAN_ELEMENT_THEORY":"SGP4","REV_AT_EPOCH":"12035","TLE_LINE2":"2 46749  53.0547 173.1892 0001750  79.2240 280.8946 15.06394073120350","NORAD_CAT_ID":"46749","EPOCH":"2022-12-25T20:41:17.011680","PERIOD":"95.593","DECAY_DATE":null,"SITE":"AFETR","OBJECT_ID":"2020-074L","ELEMENT_SET_NO":"999","LAUNCH_DATE":"2020-10-24","SEMIMAJOR_AXIS":"6925.367","FILE":"3722315","OBJECT_TYPE":"PAYLOAD","CENTER_NAME":"EARTH","TLE_LINE1":"1 46749U 20074L   22359.86200245 -.00001134  00000-0 -57255-4 0  9990","TIME_SYSTEM":"UTC","APOAPSIS":"548.444","BSTAR":"-0.00005725500000","OBJECT_NAME":"STARLINK-1911","ARG_OF_PERICENTER":"79.2240","EPHEMERIS_TYPE":"0","MEAN_ANOMALY":"280.8946"},{"COUNTRY_CODE":"US","RA_OF_ASC_NODE":"173.2069","GP_ID":"221449044","MEAN_ELEMENT_THEORY":"SGP4","ECCENTRICITY":"0.00013430","MEAN_MOTION_DDOT":"0.0000000000000","REF_FRAME":"TEME","MEAN_MOTION_DOT":"-0.00000225","INCLINATION":"53.0524","RCS_SIZE":"LARGE","PERIAPSIS":"546.276","CLASSIFICATION_TYPE":"U","MEAN_MOTION":"15.06402440","ARG_OF_PERICENTER":"90.4619","OBJECT_NAME":"STARLINK-1920","TLE_LINE1":"1 46751U 20074N   22359.85830892 -.00000225  00000-0  37633-5 0  9997","BSTAR":"0.00000376330000","APOAPSIS":"548.136","TIME_SYSTEM":"UTC","MEAN_ANOMALY":"269.6524","EPHEMERIS_TYPE":"0","SITE":"AFETR","DECAY_DATE":null,"OBJECT_ID":"2020-074N","PERIOD":"95.592","ELEMENT_SET_NO":"999","EPOCH":"2022-12-25T20:35:57.890688","TLE_LINE2":"2 46751  53.0524 173.2069 0001343  90.4619 269.6524 15.06402440120353","NORAD_CAT_ID":"46751","REV_AT_EPOCH":"12035","CENTER_NAME":"EARTH","OBJECT_TYPE":"PAYLOAD","FILE":"3722315","SEMIMAJOR_AXIS":"6925.341","LAUNCH_DATE":"2020-10-24"},{"OBJECT_TYPE":"PAYLOAD","CENTER_NAME":"EARTH","SEMIMAJOR_AXIS":"6925.361","LAUNCH_DATE":"2020-10-24","FILE":"3722315","EPOCH":"2022-12-25T20:51:53.226720","DECAY_DATE":null,"SITE":"AFETR","PERIOD":"95.592","OBJECT_ID":"2020-074P","ELEMENT_SET_NO":"999","REV_AT_EPOCH":"12035","TLE_LINE2":"2 46752  53.0536 173.1526 0001408  84.4184 275.6966 15.06396058120350","NORAD_CAT_ID":"46752","EPHEMERIS_TYPE":"0","MEAN_ANOMALY":"275.6966","ARG_OF_PERICENTER":"84.4184","TLE_LINE1":"1 46752U 20074P   22359.86936605  .00000701  00000-0  65987-4 0  9998","BSTAR":"0.00006598700000","APOAPSIS":"548.201","TIME_SYSTEM":"UTC","OBJECT_NAME":"STARLINK-1921","MEAN_MOTION":"15.06396058","RCS_SIZE":"LARGE","INCLINATION":"53.0536","PERIAPSIS":"546.251","MEAN_MOTION_DOT":"0.00000701","CLASSIFICATION_TYPE":"U","MEAN_MOTION_DDOT":"0.0000000000000","ECCENTRICITY":"0.00014080","MEAN_ELEMENT_THEORY":"SGP4","REF_FRAME":"TEME","RA_OF_ASC_NODE":"173.1526","COUNTRY_CODE":"US","GP_ID":"221449793"},{"GP_ID":"221448044","RA_OF_ASC_NODE":"173.5995","COUNTRY_CODE":"US","REF_FRAME":"TEME","MEAN_MOTION_DDOT":"0.0000000000000","ECCENTRICITY":"0.00016250","MEAN_ELEMENT_THEORY":"SGP4","CLASSIFICATION_TYPE":"U","RCS_SIZE":"LARGE","INCLINATION":"53.0529","PERIAPSIS":"546.074","MEAN_MOTION_DOT":"0.00001120","MEAN_MOTION":"15.06404500","TLE_LINE1":"1 46753U 20074Q   22359.76985157  .00001120  00000-0  94094-4 0  9991","TIME_SYSTEM":"UTC","APOAPSIS":"548.325","BSTAR":"0.00009409400000","OBJECT_NAME":"STARLINK-1922","ARG_OF_PERICENTER":"64.3972","EPHEMERIS_TYPE":"0","MEAN_ANOMALY":"295.7185","REV_AT_EPOCH":"12034","TLE_LINE2":"2 46753  53.0529 173.5995 0001625  64.3972 295.7185 15.06404500120347","NORAD_CAT_ID":"46753","EPOCH":"2022-12-25T18:28:35.175648","SITE":"AFETR","DECAY_DATE":null,"PERIOD":"95.592","OBJECT_ID":"2020-074Q","ELEMENT_SET_NO":"999","LAUNCH_DATE":"2020-10-24","SEMIMAJOR_AXIS":"6925.335","FILE":"3722315","OBJECT_TYPE":"PAYLOAD","CENTER_NAME":"EARTH"},{"MEAN_ELEMENT_THEORY":"SGP4","MEAN_MOTION_DDOT":"0.0000000000000","ECCENTRICITY":"0.00012150","REF_FRAME":"TEME","COUNTRY_CODE":"US","RA_OF_ASC_NODE":"173.2616","GP_ID":"221448294","MEAN_MOTION":"15.06407322","MEAN_MOTION_DOT":"0.00001600","PERIAPSIS":"546.350","INCLINATION":"53.0541","RCS_SIZE":"LARGE","CLASSIFICATION_TYPE":"U","MEAN_ANOMALY":"278.2932","EPHEMERIS_TYPE":"0","ARG_OF_PERICENTER":"81.8195","OBJECT_NAME":"STARLINK-1923","TIME_SYSTEM":"UTC","APOAPSIS":"548.033","BSTAR":"0.00012627000000","TLE_LINE1":"1 46754U 20074R   22359.84356275  .00001600  00000-0  12627-3 0  9998","CENTER_NAME":"EARTH","OBJECT_TYPE":"PAYLOAD","FILE":"3722315","LAUNCH_DATE":"2020-10-24","SEMIMAJOR_AXIS":"6925.326","ELEMENT_SET_NO":"999","DECAY_DATE":null,"SITE":"AFETR","OBJECT_ID":"2020-074R","PERIOD":"95.592","EPOCH":"2022-12-25T20:14:43.821600","NORAD_CAT_ID":"46754","TLE_LINE2":"2 46754  53.0541 173.2616 0001215  81.8195 278.2932 15.06407322120357","REV_AT_EPOCH":"12035"},{"REV_AT_EPOCH":"12028","TLE_LINE2":"2 46755  53.0528 178.2372 0002271  56.8886 303.2320 15.06403497120280","NORAD_CAT_ID":"46755","EPOCH":"2022-12-25T20:22:02.782848","PERIOD":"95.592","DECAY_DATE":null,"SITE":"AFETR","OBJECT_ID":"2020-074S","ELEMENT_SET_NO":"999","SEMIMAJOR_AXIS":"6925.338","LAUNCH_DATE":"2020-10-24","FILE":"3722315","OBJECT_TYPE":"PAYLOAD","CENTER_NAME":"EARTH","TLE_LINE1":"1 46755U 20074S   22359.84864332  .00002359  00000-0  17720-3 0  9998","APOAPSIS":"548.776","BSTAR":"0.00017720000000","TIME_SYSTEM":"UTC","OBJECT_NAME":"STARLINK-1924","ARG_OF_PERICENTER":"56.8886","EPHEMERIS_TYPE":"0","MEAN_ANOMALY":"303.2320","CLASSIFICATION_TYPE":"U","RCS_SIZE":"LARGE","INCLINATION":"53.0528","PERIAPSIS":"545.630","MEAN_MOTION_DOT":"0.00002359","MEAN_MOTION":"15.06403497","GP_ID":"221449544","RA_OF_ASC_NODE":"178.2372","COUNTRY_CODE":"US","REF_FRAME":"TEME","MEAN_MOTION_DDOT":"0.0000000000000","ECCENTRICITY":"0.00022710","MEAN_ELEMENT_THEORY":"SGP4"},{"EPOCH":"2022-12-25T16:17:57.453216","DECAY_DATE":null,"SITE":"AFETR","PERIOD":"95.592","OBJECT_ID":"2020-074T","ELEMENT_SET_NO":"999","REV_AT_EPOCH":"12025","TLE_LINE2":"2 46756  53.0541 179.3929 0001506  77.0817 283.0340 15.06394420120254","NORAD_CAT_ID":"46756","OBJECT_TYPE":"PAYLOAD","CENTER_NAME":"EARTH","LAUNCH_DATE":"2020-10-24","SEMIMAJOR_AXIS":"6925.366","FILE":"3722315","ARG_OF_PERICENTER":"77.0817","TLE_LINE1":"1 46756U 20074T   22359.67913719 -.00000316  00000-0 -23341-5 0  9995","APOAPSIS":"548.274","TIME_SYSTEM":"UTC","BSTAR":"-0.00000233410000","OBJECT_NAME":"STARLINK-1925","EPHEMERIS_TYPE":"0","MEAN_ANOMALY":"283.0340","RCS_SIZE":"LARGE","INCLINATION":"53.0541","PERIAPSIS":"546.188","MEAN_MOTION_DOT":"-0.00000316","CLASSIFICATION_TYPE":"U","MEAN_MOTION":"15.06394420","RA_OF_ASC_NODE":"179.3929","COUNTRY_CODE":"US","GP_ID":"221449295","MEAN_MOTION_DDOT":"0.0000000000000","ECCENTRICITY":"0.00015060","MEAN_ELEMENT_THEORY":"SGP4","REF_FRAME":"TEME"},{"COUNTRY_CODE":"US","RA_OF_ASC_NODE":"178.2698","GP_ID":"221448544","MEAN_ELEMENT_THEORY":"SGP4","MEAN_MOTION_DDOT":"0.0000000000000","ECCENTRICITY":"0.00013900","REF_FRAME":"TEME","MEAN_MOTION_DOT":"0.00001639","PERIAPSIS":"546.262","RCS_SIZE":"LARGE","INCLINATION":"53.0551","CLASSIFICATION_TYPE":"U","MEAN_MOTION":"15.06396292","ARG_OF_PERICENTER":"90.1688","OBJECT_NAME":"STARLINK-1926","BSTAR":"0.00012888000000","APOAPSIS":"548.188","TIME_SYSTEM":"UTC","TLE_LINE1":"1 46757U 20074U   22359.89290720  .00001639  00000-0  12888-3 0  9999","MEAN_ANOMALY":"269.9460","EPHEMERIS_TYPE":"0","ELEMENT_SET_NO":"999","DECAY_DATE":null,"SITE":"AFETR","PERIOD":"95.592","OBJECT_ID":"2020-074U","EPOCH":"2022-12-25T21:25:47.182080","NORAD_CAT_ID":"46757","TLE_LINE2":"2 46757  53.0551 178.2698 0001390  90.1688 269.9460 15.06396292120288","REV_AT_EPOCH":"12028","CENTER_NAME":"EARTH","OBJECT_TYPE":"PAYLOAD","FILE":"3722315","LAUNCH_DATE":"2020-10-24","SEMIMAJOR_AXIS":"6925.360"},{"MEAN_MOTION":"15.06401782","MEAN_MOTION_DOT":"0.00002937","PERIAPSIS":"546.239","RCS_SIZE":"LARGE","INCLINATION":"53.0547","CLASSIFICATION_TYPE":"U","MEAN_ELEMENT_THEORY":"SGP4","MEAN_MOTION_DDOT":"0.0000000000000","ECCENTRICITY":"0.00013990","REF_FRAME":"TEME","COUNTRY_CODE":"US","RA_OF_ASC_NODE":"178.0119","GP_ID":"221448793","CENTER_NAME":"EARTH","OBJECT_TYPE":"PAYLOAD","FILE":"3722315","SEMIMAJOR_AXIS":"6925.343","LAUNCH_DATE":"2020-10-24","ELEMENT_SET_NO":"999","DECAY_DATE":null,"SITE":"AFETR","PERIOD":"95.592","OBJECT_ID":"2020-074V","EPOCH":"2022-12-25T21:31:01.725600","NORAD_CAT_ID":"46758","TLE_LINE2":"2 46758  53.0547 178.0119 0001399  65.6339 294.4796 15.06401782120296","REV_AT_EPOCH":"12029","MEAN_ANOMALY":"294.4796","EPHEMERIS_TYPE":"0","ARG_OF_PERICENTER":"65.6339","OBJECT_NAME":"STARLINK-1928","APOAPSIS":"548.177","TIME_SYSTEM":"UTC","BSTAR":"0.00021599000000","TLE_LINE1":"1 46758U 20074V   22359.89654775  .00002937  00000-0  21599-3 0  9995"},{"APOAPSIS":"548.242","BSTAR":"-0.00002489800000","TIME_SYSTEM":"UTC","TLE_LINE1":"1 46759U 20074W   22359.89195518 -.00000652  00000-0 -24898-4 0  9991","OBJECT_NAME":"STARLINK-1833","ARG_OF_PERICENTER":"68.1136","EPHEMERIS_TYPE":"0","MEAN_ANOMALY":"292.0009","REV_AT_EPOCH":"12014","NORAD_CAT_ID":"46759","TLE_LINE2":"2 46759  53.0540 188.0592 0001469  68.1136 292.0009 15.06396279120146","EPOCH":"2022-12-25T21:24:24.927552","ELEMENT_SET_NO":"999","DECAY_DATE":null,"SITE":"AFETR","PERIOD":"95.592","OBJECT_ID":"2020-074W","SEMIMAJOR_AXIS":"6925.360","LAUNCH_DATE":"2020-10-24","FILE":"3722315","OBJECT_TYPE":"PAYLOAD","CENTER_NAME":"EARTH","GP_ID":"221449045","RA_OF_ASC_NODE":"188.0592","COUNTRY_CODE":"US","REF_FRAME":"TEME","ECCENTRICITY":"0.00014690","MEAN_MOTION_DDOT":"0.0000000000000","MEAN_ELEMENT_THEORY":"SGP4","CLASSIFICATION_TYPE":"U","PERIAPSIS":"546.208","INCLINATION":"53.0540","RCS_SIZE":"LARGE","MEAN_MOTION_DOT":"-0.00000652","MEAN_MOTION":"15.06396279"}];
